LEMUR-2-STARLIGHT       
1 66783U 25276DY  26187.99363473  .00005101  00000+0  42157-3 0  9998
2 66783  97.5224 257.9552 0014694  71.1239 289.1577 14.99287934 33161
LEMUR-2-TARTIFLETTE     
1 66784U 25276DZ  26187.72500240  .00004212  00000+0  34914-3 0  9999
2 66784  97.5225 257.7037 0013730  79.6577 280.6194 14.99277169 33123
LEMUR-2-VUKASIN         
1 66785U 25276EA  26187.76888705  .00004091  00000+0  32922-3 0  9991
2 66785  97.5243 258.0885 0004393  79.4597 280.7122 15.00493817 33084
LEMUR-2-HOTSPUR-TOM     
1 66786U 25276EB  26187.71887010  .00004474  00000+0  37145-3 0  9992
2 66786  97.5216 257.6747 0013989  70.9230 289.3507 14.99183448 33050
LEMUR-2-MYRA            
1 66787U 25276EC  26187.73430867  .00004840  00000+0  38707-3 0  9991
2 66787  97.5208 257.9763 0018461  79.9717 280.3589 15.00524052 33146
LEMUR-2 FIKRETDENGIZ    
1 67363U 26004A   26187.96653304  .00002763  00000+0  30319-3 0  9993
2 67363  97.8025 186.2222 0010521  78.8040 281.4359 14.88477746 26227
TWILIGHT-1 OBJECT B     
1 67364U 26004B   26187.93248397  .00001763  00000+0  19901-3 0  9996
2 67364  97.8067 186.1943 0010152  69.5531 290.6775 14.87774360 26220
LEMUR-2-MARIO-SOUSA     
1 67365U 26004C   26187.94754580  .00003754  00000+0  40765-3 0  9998
2 67365  97.7998 186.1987 0010226  80.1925 280.0447 14.88683478 26239
LEMUR-2-SONNENBLUME     
1 67367U 26004E   26187.94892678  .00002629  00000+0  28918-3 0  9997
2 67367  97.7994 186.1767 0009743  81.1165 279.1155 14.88426255 26235
LEMUR-2-WOBLER          
1 67368U 26004F   26187.93954238  .00003294  00000+0  35866-3 0  9997
2 67368  97.8045 186.3094 0009913  72.9418 287.2884 14.88659353 26233
LEMUR-2-GRAM-E-SUE      
1 67370U 26004H   26187.93110551  .00002256  00000+0  24816-3 0  9992
2 67370  97.7979 186.1754 0008841  83.2986 276.9237 14.88563810 26235
LEMUR-2-KATIE           
1 67387U 26004AA  26187.96435581  .00003296  00000+0  34570-3 0  9999
2 67387  97.8046 186.7320 0004167  52.8461 307.3137 14.90203769 26258
LEMUR-2-HCS-BAZUS       
1 67388U 26004AB  26187.96282343  .00002141  00000+0  22646-3 0  9995
2 67388  97.8032 186.7099 0003591  52.2546 307.8996 14.90233192 26256
