OBJECT_NAME,OBJECT_ID,EPOCH,MEAN_MOTION,ECCENTRICITY,INCLINATION,RA_OF_ASC_NODE,ARG_OF_PERICENTER,MEAN_ANOMALY,EPHEMERIS_TYPE,CLASSIFICATION_TYPE,NORAD_CAT_ID,ELEMENT_SET_NO,REV_AT_EPOCH,BSTAR,MEAN_MOTION_DOT,MEAN_MOTION_DDOT
LEMUR-2-STARLIGHT,2025-276DY,2026-07-06T23:50:50.040672,14.99287934,.0014694,97.5224,257.9552,71.1239,289.1577,0,U,66783,999,3316,.42157E-3,.5101E-4,0
LEMUR-2-TARTIFLETTE,2025-276DZ,2026-07-06T17:24:00.207360,14.99277169,.001373,97.5225,257.7037,79.6577,280.6194,0,U,66784,999,3312,.34914E-3,.4212E-4,0
LEMUR-2-VUKASIN,2025-276EA,2026-07-06T18:27:11.841120,15.00493817,.0004393,97.5243,258.0885,79.4597,280.7122,0,U,66785,999,3308,.32922E-3,.4091E-4,0
LEMUR-2-HOTSPUR-TOM,2025-276EB,2026-07-06T17:15:10.376640,14.99183448,.0013989,97.5216,257.6747,70.9230,289.3507,0,U,66786,999,3305,.37145E-3,.4474E-4,0
LEMUR-2-MYRA,2025-276EC,2026-07-06T17:37:24.269088,15.00524052,.0018461,97.5208,257.9763,79.9717,280.3589,0,U,66787,999,3314,.38707E-3,.484E-4,0
LEMUR-2 FIKRETDENGIZ,2026-004A,2026-07-06T23:11:48.454656,14.88477746,.0010521,97.8025,186.2222,78.8040,281.4359,0,U,67363,999,2622,.30319E-3,.2763E-4,0
TWILIGHT-1 OBJECT B,2026-004B,2026-07-06T22:22:46.615008,14.87774360,.0010152,97.8067,186.1943,69.5531,290.6775,0,U,67364,999,2622,.19901E-3,.1763E-4,0
LEMUR-2-MARIO-SOUSA,2026-004C,2026-07-06T22:44:27.957120,14.88683478,.0010226,97.7998,186.1987,80.1925,280.0447,0,U,67365,999,2623,.40765E-3,.3754E-4,0
LEMUR-2-SONNENBLUME,2026-004E,2026-07-06T22:46:27.273792,14.88426255,.0009743,97.7994,186.1767,81.1165,279.1155,0,U,67367,999,2623,.28918E-3,.2629E-4,0
LEMUR-2-WOBLER,2026-004F,2026-07-06T22:32:56.461632,14.88659353,.0009913,97.8045,186.3094,72.9418,287.2884,0,U,67368,999,2623,.35866E-3,.3294E-4,0
LEMUR-2-GRAM-E-SUE,2026-004H,2026-07-06T22:20:47.516064,14.88563810,.0008841,97.7979,186.1754,83.2986,276.9237,0,U,67370,999,2623,.24816E-3,.2256E-4,0
LEMUR-2-KATIE,2026-004AA,2026-07-06T23:08:40.341984,14.90203769,.0004167,97.8046,186.7320,52.8461,307.3137,0,U,67387,999,2625,.3457E-3,.3296E-4,0
LEMUR-2-HCS-BAZUS,2026-004AB,2026-07-06T23:06:27.944352,14.90233192,.0003591,97.8032,186.7099,52.2546,307.8996,0,U,67388,999,2625,.22646E-3,.2141E-4,0
